start=new Date('2023-02-02T00:00:00.000Z').valueOf();
sats=[{"REV_AT_EPOCH":"2679","MEAN_ELEMENT_THEORY":"SGP4","INCLINATION":"97.6596","CLASSIFICATION_TYPE":"U","ELEMENT_SET_NO":"999","DECAY_DATE":null,"PERIAPSIS":"562.060","ARG_OF_PERICENTER":"89.5490","MEAN_MOTION_DOT":"0.00003828","FILE":"3767525","LAUNCH_DATE":"2022-08-12","CENTER_NAME":"EARTH","GP_ID":"224199675","RA_OF_ASC_NODE":"155.3793","OBJECT_ID":"2022-099L","TLE_LINE2":"2 53475  97.6596 155.3793 0001311  89.5490 270.5884 15.01273661 26792","SITE":"AFWTR","EPHEMERIS_TYPE":"0","SEMIMAJOR_AXIS":"6941.105","BSTAR":"0.00030238000000","REF_FRAME":"TEME","MEAN_MOTION_DDOT":"0.0000000000000","RCS_SIZE":"LARGE","OBJECT_TYPE":"PAYLOAD","APOAPSIS":"563.880","TLE_LINE1":"1 53475U 22099L   23032.35386306  .00003828  00000-0  30238-3 0  9990","COUNTRY_CODE":"US","EPOCH":"2023-02-01T08:29:33.768384","NORAD_CAT_ID":"53475","MEAN_ANOMALY":"270.5884","TIME_SYSTEM":"UTC","ECCENTRICITY":"0.00013110","OBJECT_NAME":"STARLINK-4389","PERIOD":"95.919","MEAN_MOTION":"15.01273661"},{"TLE_LINE1":"1 53476U 22099M   23032.29091425  .00002344  00000-0  18697-3 0  9996","EPOCH":"2023-02-01T06:58:54.991200","COUNTRY_CODE":"US","APOAPSIS":"563.792","OBJECT_TYPE":"PAYLOAD","RCS_SIZE":"LARGE","OBJECT_NAME":"STARLINK-4378","MEAN_MOTION":"15.01269889","PERIOD":"95.919","MEAN_ANOMALY":"262.3694","NORAD_CAT_ID":"53476","TIME_SYSTEM":"UTC","ECCENTRICITY":"0.00011680","ARG_OF_PERICENTER":"97.7663","PERIAPSIS":"562.171","DECAY_DATE":null,"FILE":"3767525","LAUNCH_DATE":"2022-08-12","CENTER_NAME":"EARTH","MEAN_MOTION_DOT":"0.00002344","REV_AT_EPOCH":"2608","INCLINATION":"97.6600","MEAN_ELEMENT_THEORY":"SGP4","CLASSIFICATION_TYPE":"U","ELEMENT_SET_NO":"999","EPHEMERIS_TYPE":"0","SITE":"AFWTR","MEAN_MOTION_DDOT":"0.0000000000000","REF_FRAME":"TEME","BSTAR":"0.00018697000000","SEMIMAJOR_AXIS":"6941.116","GP_ID":"224199925","TLE_LINE2":"2 53476  97.6600 155.3109 0001168  97.7663 262.3694 15.01269889 26080","OBJECT_ID":"2022-099M","RA_OF_ASC_NODE":"155.3109"},{"OBJECT_NAME":"STARLINK-4412","PERIOD":"95.919","MEAN_MOTION":"15.01272705","MEAN_ANOMALY":"272.8362","NORAD_CAT_ID":"53477","TIME_SYSTEM":"UTC","ECCENTRICITY":"0.00013730","TLE_LINE1":"1 53477U 22099N   23032.28351109  .00006442  00000-0  50555-3 0  9996","EPOCH":"2023-02-01T06:48:15.358176","COUNTRY_CODE":"US","APOAPSIS":"563.926","OBJECT_TYPE":"PAYLOAD","RCS_SIZE":"LARGE","SITE":"AFWTR","EPHEMERIS_TYPE":"0","MEAN_MOTION_DDOT":"0.0000000000000","REF_FRAME":"TEME","BSTAR":"0.00050555000000","SEMIMAJOR_AXIS":"6941.108","GP_ID":"224200677","TLE_LINE2":"2 53477  97.6563 155.3137 0001373  87.3020 272.8362 15.01272705 26786","RA_OF_ASC_NODE":"155.3137","OBJECT_ID":"2022-099N","ARG_OF_PERICENTER":"87.3020","PERIAPSIS":"562.020","DECAY_DATE":null,"FILE":"3767525","LAUNCH_DATE":"2022-08-12","CENTER_NAME":"EARTH","MEAN_MOTION_DOT":"0.00006442","REV_AT_EPOCH":"2678","INCLINATION":"97.6563","MEAN_ELEMENT_THEORY":"SGP4","ELEMENT_SET_NO":"999","CLASSIFICATION_TYPE":"U"},{"EPOCH":"2023-02-01T18:08:28.657536","COUNTRY_CODE":"US","TLE_LINE1":"1 53478U 22099P   23032.75588724 -.00001667  00000-0 -12520-3 0  9990","RCS_SIZE":"LARGE","OBJECT_TYPE":"PAYLOAD","APOAPSIS":"564.264","MEAN_MOTION":"15.01256058","PERIOD":"95.920","OBJECT_NAME":"STARLINK-4433","TIME_SYSTEM":"UTC","ECCENTRICITY":"0.00017870","NORAD_CAT_ID":"53478","MEAN_ANOMALY":"294.0173","MEAN_MOTION_DOT":"-0.00001667","FILE":"3767704","CENTER_NAME":"EARTH","LAUNCH_DATE":"2022-08-12","PERIAPSIS":"561.784","DECAY_DATE":null,"ARG_OF_PERICENTER":"66.1238","ELEMENT_SET_NO":"999","CLASSIFICATION_TYPE":"U","REV_AT_EPOCH":"2639","INCLINATION":"97.6584","MEAN_ELEMENT_THEORY":"SGP4","REF_FRAME":"TEME","BSTAR":"-0.00012520000000","SEMIMAJOR_AXIS":"6941.159","MEAN_MOTION_DDOT":"0.0000000000000","EPHEMERIS_TYPE":"0","SITE":"AFWTR","OBJECT_ID":"2022-099P","RA_OF_ASC_NODE":"155.7729","TLE_LINE2":"2 53478  97.6584 155.7729 0001787  66.1238 294.0173 15.01256058 26392","GP_ID":"224205043"},{"COUNTRY_CODE":"US","EPOCH":"2023-02-01T08:21:33.349824","TLE_LINE1":"1 53479U 22099Q   23032.34830266  .00040239  00000-0  31145-2 0  9996","RCS_SIZE":"LARGE","OBJECT_TYPE":"PAYLOAD","APOAPSIS":"563.943","PERIOD":"95.915","MEAN_MOTION":"15.01322017","OBJECT_NAME":"STARLINK-4436","ECCENTRICITY":"0.00016170","TIME_SYSTEM":"UTC","NORAD_CAT_ID":"53479","MEAN_ANOMALY":"260.8333","MEAN_MOTION_DOT":"0.00040239","LAUNCH_DATE":"2022-08-12","FILE":"3767704","CENTER_NAME":"EARTH","DECAY_DATE":null,"PERIAPSIS":"561.698","ARG_OF_PERICENTER":"99.3074","ELEMENT_SET_NO":"999","CLASSIFICATION_TYPE":"U","MEAN_ELEMENT_THEORY":"SGP4","REV_AT_EPOCH":"2633","INCLINATION":"97.6560","SEMIMAJOR_AXIS":"6940.956","BSTAR":"0.00311450000000","REF_FRAME":"TEME","MEAN_MOTION_DDOT":"0.0000000000000","EPHEMERIS_TYPE":"0","SITE":"AFWTR","RA_OF_ASC_NODE":"155.3791","OBJECT_ID":"2022-099Q","TLE_LINE2":"2 53479  97.6560 155.3791 0001617  99.3074 260.8333 15.01322017 26332","GP_ID":"224204740"},{"INCLINATION":"97.6583","REV_AT_EPOCH":"2609","MEAN_ELEMENT_THEORY":"SGP4","CLASSIFICATION_TYPE":"U","ELEMENT_SET_NO":"999","DECAY_DATE":null,"PERIAPSIS":"562.250","ARG_OF_PERICENTER":"105.2519","MEAN_MOTION_DOT":"0.00003788","FILE":"3767525","CENTER_NAME":"EARTH","LAUNCH_DATE":"2022-08-12","GP_ID":"224199426","RA_OF_ASC_NODE":"155.3798","OBJECT_ID":"2022-099R","TLE_LINE2":"2 53480  97.6583 155.3798 0001025 105.2519 254.8819 15.01276260 26093","SITE":"AFWTR","EPHEMERIS_TYPE":"0","SEMIMAJOR_AXIS":"6941.097","REF_FRAME":"TEME","BSTAR":"0.00029921000000","MEAN_MOTION_DDOT":"0.0000000000000","RCS_SIZE":"LARGE","APOAPSIS":"563.673","OBJECT_TYPE":"PAYLOAD","TLE_LINE1":"1 53480U 22099R   23032.35201227  .00003788  00000-0  29921-3 0  9996","COUNTRY_CODE":"US","EPOCH":"2023-02-01T08:26:53.860128","NORAD_CAT_ID":"53480","MEAN_ANOMALY":"254.8819","ECCENTRICITY":"0.00010250","TIME_SYSTEM":"UTC","OBJECT_NAME":"STARLINK-4442","PERIOD":"95.918","MEAN_MOTION":"15.01276260"},{"GP_ID":"224200178","TLE_LINE2":"2 53481  97.6550 155.5107 0001765  96.3512 263.7913 15.01282964 26113","OBJECT_ID":"2022-099S","RA_OF_ASC_NODE":"155.5107","EPHEMERIS_TYPE":"0","SITE":"AFWTR","MEAN_MOTION_DDOT":"0.0000000000000","SEMIMAJOR_AXIS":"6941.076","BSTAR":"0.00060444000000","REF_FRAME":"TEME","MEAN_ELEMENT_THEORY":"SGP4","REV_AT_EPOCH":"2611","INCLINATION":"97.6550","ELEMENT_SET_NO":"999","CLASSIFICATION_TYPE":"U","ARG_OF_PERICENTER":"96.3512","DECAY_DATE":null,"PERIAPSIS":"561.716","FILE":"3767525","LAUNCH_DATE":"2022-08-12","CENTER_NAME":"EARTH","MEAN_MOTION_DOT":"0.00007718","MEAN_ANOMALY":"263.7913","NORAD_CAT_ID":"53481","ECCENTRICITY":"0.00017650","TIME_SYSTEM":"UTC","OBJECT_NAME":"STARLINK-4302","MEAN_MOTION":"15.01282964","PERIOD":"95.918","OBJECT_TYPE":"PAYLOAD","APOAPSIS":"564.166","RCS_SIZE":"LARGE","TLE_LINE1":"1 53481U 22099S   23032.47976473  .00007718  00000-0  60444-3 0  9994","COUNTRY_CODE":"US","EPOCH":"2023-02-01T11:30:51.672672"},{"SITE":"AFWTR","EPHEMERIS_TYPE":"0","BSTAR":"0.00029622000000","REF_FRAME":"TEME","SEMIMAJOR_AXIS":"6941.101","MEAN_MOTION_DDOT":"0.0000000000000","GP_ID":"224200928","RA_OF_ASC_NODE":"155.3801","OBJECT_ID":"2022-099T","TLE_LINE2":"2 53482  97.6552 155.3801 0001669  88.8674 271.2741 15.01274931 26098","DECAY_DATE":null,"PERIAPSIS":"561.807","ARG_OF_PERICENTER":"88.8674","MEAN_MOTION_DOT":"0.00003749","FILE":"3767525","LAUNCH_DATE":"2022-08-12","CENTER_NAME":"EARTH","MEAN_ELEMENT_THEORY":"SGP4","REV_AT_EPOCH":"2609","INCLINATION":"97.6552","ELEMENT_SET_NO":"999","CLASSIFICATION_TYPE":"U","OBJECT_NAME":"STARLINK-4360","PERIOD":"95.918","MEAN_MOTION":"15.01274931","NORAD_CAT_ID":"53482","MEAN_ANOMALY":"271.2741","TIME_SYSTEM":"UTC","ECCENTRICITY":"0.00016690","TLE_LINE1":"1 53482U 22099T   23032.34670360  .00003749  00000-0  29622-3 0  9990","EPOCH":"2023-02-01T08:19:15.191040","COUNTRY_CODE":"US","RCS_SIZE":"LARGE","APOAPSIS":"564.124","OBJECT_TYPE":"PAYLOAD"},{"OBJECT_NAME":"STARLINK-4401","PERIOD":"95.918","MEAN_MOTION":"15.01278426","NORAD_CAT_ID":"53483","MEAN_ANOMALY":"265.4042","ECCENTRICITY":"0.00019030","TIME_SYSTEM":"UTC","TLE_LINE1":"1 53483U 22099U   23032.34115284  .00006168  00000-0  48413-3 0  9997","COUNTRY_CODE":"US","EPOCH":"2023-02-01T08:11:15.605376","RCS_SIZE":"LARGE","APOAPSIS":"564.276","OBJECT_TYPE":"PAYLOAD","SITE":"AFWTR","EPHEMERIS_TYPE":"0","SEMIMAJOR_AXIS":"6941.090","BSTAR":"0.00048413000000","REF_FRAME":"TEME","MEAN_MOTION_DDOT":"0.0000000000000","GP_ID":"224199676","RA_OF_ASC_NODE":"155.3767","OBJECT_ID":"2022-099U","TLE_LINE2":"2 53483  97.6549 155.3767 0001903  94.7400 265.4042 15.01278426 26092","PERIAPSIS":"561.634","DECAY_DATE":null,"ARG_OF_PERICENTER":"94.7400","MEAN_MOTION_DOT":"0.00006168","CENTER_NAME":"EARTH","FILE":"3767525","LAUNCH_DATE":"2022-08-12","MEAN_ELEMENT_THEORY":"SGP4","REV_AT_EPOCH":"2609","INCLINATION":"97.6549","CLASSIFICATION_TYPE":"U","ELEMENT_SET_NO":"999"},{"EPHEMERIS_TYPE":"0","SITE":"AFWTR","MEAN_MOTION_DDOT":"0.0000000000000","SEMIMAJOR_AXIS":"6941.083","REF_FRAME":"TEME","BSTAR":"0.00037908000000","GP_ID":"224199926","TLE_LINE2":"2 53484  97.6539 155.5120 0001534  90.0938 270.0462 15.01280712 26114","OBJECT_ID":"2022-099V","RA_OF_ASC_NODE":"155.5120","ARG_OF_PERICENTER":"90.0938","DECAY_DATE":null,"PERIAPSIS":"561.883","CENTER_NAME":"EARTH","FILE":"3767525","LAUNCH_DATE":"2022-08-12","MEAN_MOTION_DOT":"0.00004816","REV_AT_EPOCH":"2611","MEAN_ELEMENT_THEORY":"SGP4","INCLINATION":"97.6539","CLASSIFICATION_TYPE":"U","ELEMENT_SET_NO":"999","OBJECT_NAME":"STARLINK-4426","PERIOD":"95.918","MEAN_MOTION":"15.01280712","MEAN_ANOMALY":"270.0462","NORAD_CAT_ID":"53484","TIME_SYSTEM":"UTC","ECCENTRICITY":"0.00015340","TLE_LINE1":"1 53484U 22099V   23032.47790790  .00004816  00000-0  37908-3 0  9998","COUNTRY_CODE":"US","EPOCH":"2023-02-01T11:28:11.242560","APOAPSIS":"564.013","OBJECT_TYPE":"PAYLOAD","RCS_SIZE":"LARGE"}];
